{
  "norad_id": 68763,
  "name": "2026-083J",
  "history": [
    {
      "epoch": "2026-04-18T10:09:16.570944Z",
      "apogee_km": 553.6962759486414,
      "perigee_km": 538.1838506590975,
      "latitude_deg": 3.387860208550774e-05,
      "longitude_deg": -110.28787144529,
      "height_km": 551.2166444535338,
      "semi_major_axis_km": 6924.077063303869,
      "eccentricity": 0.00112018,
      "inclination_deg": 96.9505,
      "raan_deg": 248.5735,
      "arg_perigee_deg": 253.6518,
      "mean_anomaly_deg": 106.348,
      "mean_motion_rev_day": 15.06814958
    },
    {
      "epoch": "2026-04-19T13:14:56.014080Z",
      "apogee_km": 553.746255103897,
      "perigee_km": 538.1151722402828,
      "latitude_deg": 6.778528516132834e-05,
      "longitude_deg": -156.79544559718167,
      "height_km": 551.8154319167112,
      "semi_major_axis_km": 6924.06771367209,
      "eccentricity": 0.00112875,
      "inclination_deg": 96.9509,
      "raan_deg": 249.593,
      "arg_perigee_deg": 249.0758,
      "mean_anomaly_deg": 110.9264,
      "mean_motion_rev_day": 15.0681801
    },
    {
      "epoch": "2026-04-20T16:20:35.335392Z",
      "apogee_km": 553.7909881210835,
      "perigee_km": 538.0512192397973,
      "latitude_deg": -2.9563940996626632e-05,
      "longitude_deg": 156.69760378527096,
      "height_km": 552.3813095618648,
      "semi_major_axis_km": 6924.058103680441,
      "eccentricity": 0.0011366,
      "inclination_deg": 96.9512,
      "raan_deg": 250.6126,
      "arg_perigee_deg": 244.6734,
      "mean_anomaly_deg": 115.3318,
      "mean_motion_rev_day": 15.06821147
    },
    {
      "epoch": "2026-04-21T14:39:21.589056Z",
      "apogee_km": 553.8327755074279,
      "perigee_km": 537.987785710483,
      "latitude_deg": 1.765985412013234e-05,
      "longitude_deg": -178.07178396117342,
      "height_km": 552.8444150797034,
      "semi_major_axis_km": 6924.047280608956,
      "eccentricity": 0.0011442,
      "inclination_deg": 96.9514,
      "raan_deg": 251.4523,
      "arg_perigee_deg": 241.0041,
      "mean_anomaly_deg": 119.0042,
      "mean_motion_rev_day": 15.0682468
    },
    {
      "epoch": "2026-04-22T12:58:07.656960Z",
      "apogee_km": 553.862788481697,
      "perigee_km": 537.9354282216564,
      "latitude_deg": 7.89408533149468e-06,
      "longitude_deg": -152.84038870629777,
      "height_km": 553.279182878753,
      "semi_major_axis_km": 6924.036108351676,
      "eccentricity": 0.00115015,
      "inclination_deg": 96.9517,
      "raan_deg": 252.292,
      "arg_perigee_deg": 237.4368,
      "mean_anomaly_deg": 122.5751,
      "mean_motion_rev_day": 15.06828327
    },
    {
      "epoch": "2026-04-23T12:52:31.001952Z",
      "apogee_km": 553.8962119854277,
      "perigee_km": 537.8727799199241,
      "latitude_deg": 5.8269774206802706e-05,
      "longitude_deg": -151.5196721256845,
      "height_km": 553.7395869701941,
      "semi_major_axis_km": 6924.021495952676,
      "eccentricity": 0.00115709,
      "inclination_deg": 96.952,
      "raan_deg": 253.1918,
      "arg_perigee_deg": 233.5381,
      "mean_anomaly_deg": 126.4783,
      "mean_motion_rev_day": 15.06833097
    },
    {
      "epoch": "2026-04-24T12:46:54.067008Z",
      "apogee_km": 553.9240433982422,
      "perigee_km": 537.8132670396781,
      "latitude_deg": 7.538254855513233e-05,
      "longitude_deg": -150.19788115204534,
      "height_km": 554.1805320657569,
      "semi_major_axis_km": 6924.00565521896,
      "eccentricity": 0.0011634,
      "inclination_deg": 96.9522,
      "raan_deg": 254.0915,
      "arg_perigee_deg": 229.6262,
      "mean_anomaly_deg": 130.3953,
      "mean_motion_rev_day": 15.06838268
    },
    {
      "epoch": "2026-04-25T15:52:31.815840Z",
      "apogee_km": 553.9550600902066,
      "perigee_km": 537.7349398570686,
      "latitude_deg": -1.560832419676842e-05,
      "longitude_deg": 163.30183900971255,
      "height_km": 554.650643091808,
      "semi_major_axis_km": 6923.981999973637,
      "eccentricity": 0.0011713,
      "inclination_deg": 96.9524,
      "raan_deg": 255.1112,
      "arg_perigee_deg": 225.2275,
      "mean_anomaly_deg": 134.8002,
      "mean_motion_rev_day": 15.0684599
    }
  ]
}